SL-16 R/B               
1 25407U 98045B   26085.31317498 -.00000239  00000+0 -96350-4 0  9993
2 25407  71.0108 146.6179 0007849 342.0087  18.0758 14.16194839429452
ISS (ZARYA)             
1 25544U 98067A   26085.16418549  .00013248  00000+0  25200-3 0  9998
2 25544  51.6341 350.9181 0006235 233.8862 126.1549 15.48550942558882
CZ-4B R/B               
1 25732U 99025C   26085.09641887  .00000050  00000+0  45223-4 0  9992
2 25732  98.6594 128.9870 0036068 298.4929  88.0027 14.18268478390492
OKEAN-O                 
1 25860U 99039A   26085.14461240  .00000671  00000+0  94748-4 0  9993
2 25860  97.9408 144.8661 0000885  86.8361 273.2952 14.80360863436825
SL-16 R/B               
1 25861U 99039B   26085.10901128  .00000536  00000+0  74747-4 0  9991
2 25861  97.9931 144.1784 0014342 199.1366 160.9310 14.81752971439292
DELTA 2 R/B             
1 25876U 99041E   26085.07773584  .00000671  00000+0  14763-3 0  9990
2 25876  51.7606 235.8151 0502636  36.7660 326.6666 14.11873411365347
HELIOS 1B               
1 25977U 99064A   26085.25917021  .00001618  00000+0  18378-3 0  9991
2 25977  98.1673 347.9880 0001960  53.6198 306.5198 14.87760131687723
TERRA                   
1 25994U 99068A   26085.28912505  .00000426  00000+0  95748-4 0  9992
2 25994  97.9559 138.0869 0003506 116.7473 305.6869 14.61031723397502
SL-16 R/B               
1 26070U 00006B   26085.26229340  .00000281  00000+0  16691-3 0  9996
2 26070  71.0014  62.9871 0015889 163.9662 196.1967 14.15825493350905
TITAN 4B R/B            
1 26474U 00047B   26085.26016193  .00003625  00000+0  22852-3 0  9990
2 26474  67.9913 353.9111 0039776  16.0093 344.2303 15.09714772395418
ENVISAT                 
1 27386U 02009A   26085.31131624  .00000128  00000+0  55422-4 0  9991
2 27386  98.3755  38.5157 0001236  81.6246  40.8529 14.39042549261562
IDEFIX & ARIANE 42P R/B 
1 27422U 02021B   26085.27658906  .00000282  00000+0  12368-3 0  9990
2 27422  98.5889  23.6865 0012511 134.4589 225.7619 14.31037008246393
